[{"OBJECT_NAME":"OSCAR 31","OBJECT_ID":"1988-074B","EPOCH":"2026-04-04T06:00:02.235168","MEAN_MOTION":13.42602164,"ECCENTRICITY":0.00924067,"INCLINATION":90.0469,"RA_OF_ASC_NODE":21.0187,"ARG_OF_PERICENTER":279.9957,"MEAN_ANOMALY":235.1632,"EPHEMERIS_TYPE":0,"CLASSIFICATION_TYPE":"U","NORAD_CAT_ID":19420,"ELEMENT_SET_NO":999,"REV_AT_EPOCH":84160,"BSTAR":0.00018191564,"MEAN_MOTION_DOT":1.14e-6,"MEAN_MOTION_DDOT":0}]
