OSCAR 31                
1 19420U 88074B   26094.25002587  .00000114  00000+0  18192-3 0  9992
2 19420  90.0469  21.0187 0092406 279.9957 235.1632 13.42602164841604
